start=new Date('2022-06-14T00:00:00.000Z').valueOf();
sats=[{"MEAN_ELEMENT_THEORY":"SGP4","GP_ID":"206056612","BSTAR":"0.00005066100000","CENTER_NAME":"EARTH","MEAN_MOTION":"15.06405046","ARG_OF_PERICENTER":"64.7364","REV_AT_EPOCH":"11043","CLASSIFICATION_TYPE":"U","ECCENTRICITY":"0.00013600","PERIAPSIS":"546.256","MEAN_ANOMALY":"295.3766","RCS_SIZE":"LARGE","TLE_LINE1":"1 45730U 20038A   22164.48002112  .00000473  00000-0  50661-4 0  9991","EPOCH":"2022-06-13T11:31:13.824768","RA_OF_ASC_NODE":"245.2932","APOAPSIS":"548.140","OBJECT_NAME":"STARLINK-1461","COUNTRY_CODE":"US","ELEMENT_SET_NO":"999","OBJECT_TYPE":"PAYLOAD","TLE_LINE2":"2 45730  53.0558 245.2932 0001360  64.7364 295.3766 15.06405046110432","DECAY_DATE":null,"REF_FRAME":"TEME","EPHEMERIS_TYPE":"0","SITE":"AFETR","PERIOD":"95.592","MEAN_MOTION_DOT":"0.00000473","TIME_SYSTEM":"UTC","LAUNCH_DATE":"2020-06-13","MEAN_MOTION_DDOT":"0.0000000000000","OBJECT_ID":"2020-038A","INCLINATION":"53.0558","SEMIMAJOR_AXIS":"6925.333","FILE":"3494620","NORAD_CAT_ID":"45730"},{"APOAPSIS":"548.270","OBJECT_NAME":"STARLINK-1465","TLE_LINE1":"1 45731U 20038B   22164.49477090 -.00000646  00000-0 -24442-4 0  9996","RCS_SIZE":"LARGE","EPOCH":"2022-06-13T11:52:28.205760","RA_OF_ASC_NODE":"245.2192","PERIAPSIS":"546.160","MEAN_ANOMALY":"287.4155","CLASSIFICATION_TYPE":"U","ECCENTRICITY":"0.00015240","REV_AT_EPOCH":"11042","ARG_OF_PERICENTER":"72.7000","CENTER_NAME":"EARTH","MEAN_MOTION":"15.06399544","MEAN_ELEMENT_THEORY":"SGP4","GP_ID":"206057863","BSTAR":"-0.00002444200000","SEMIMAJOR_AXIS":"6925.350","NORAD_CAT_ID":"45731","FILE":"3494620","MEAN_MOTION_DDOT":"0.0000000000000","OBJECT_ID":"2020-038B","INCLINATION":"53.0553","LAUNCH_DATE":"2020-06-13","PERIOD":"95.592","MEAN_MOTION_DOT":"-0.00000646","TIME_SYSTEM":"UTC","EPHEMERIS_TYPE":"0","SITE":"AFETR","DECAY_DATE":null,"REF_FRAME":"TEME","ELEMENT_SET_NO":"999","TLE_LINE2":"2 45731  53.0553 245.2192 0001524  72.7000 287.4155 15.06399544110422","OBJECT_TYPE":"PAYLOAD","COUNTRY_CODE":"US"},{"PERIOD":"95.592","MEAN_MOTION_DOT":"0.00000354","TIME_SYSTEM":"UTC","LAUNCH_DATE":"2020-06-13","MEAN_MOTION_DDOT":"0.0000000000000","OBJECT_ID":"2020-038C","INCLINATION":"53.0544","SEMIMAJOR_AXIS":"6925.332","FILE":"3494620","NORAD_CAT_ID":"45732","COUNTRY_CODE":"US","ELEMENT_SET_NO":"999","OBJECT_TYPE":"PAYLOAD","TLE_LINE2":"2 45732  53.0544 245.2644 0001611  59.3290 300.7857 15.06405329110421","DECAY_DATE":null,"REF_FRAME":"TEME","EPHEMERIS_TYPE":"0","SITE":"AFETR","CLASSIFICATION_TYPE":"U","ECCENTRICITY":"0.00016110","MEAN_ANOMALY":"300.7857","PERIAPSIS":"546.082","RCS_SIZE":"LARGE","TLE_LINE1":"1 45732U 20038C   22164.48371269  .00000354  00000-0  42632-4 0  9992","EPOCH":"2022-06-13T11:36:32.776416","RA_OF_ASC_NODE":"245.2644","APOAPSIS":"548.313","OBJECT_NAME":"STARLINK-1466","GP_ID":"206057614","MEAN_ELEMENT_THEORY":"SGP4","BSTAR":"0.00004263200000","CENTER_NAME":"EARTH","MEAN_MOTION":"15.06405329","REV_AT_EPOCH":"11042","ARG_OF_PERICENTER":"59.3290"},{"REV_AT_EPOCH":"11042","ARG_OF_PERICENTER":"63.9159","BSTAR":"-0.00002487600000","MEAN_ELEMENT_THEORY":"SGP4","GP_ID":"206056362","MEAN_MOTION":"15.06393988","CENTER_NAME":"EARTH","RA_OF_ASC_NODE":"245.2315","EPOCH":"2022-06-13T11:47:09.801888","TLE_LINE1":"1 45733U 20038D   22164.49108567 -.00000652  00000-0 -24876-4 0  9996","RCS_SIZE":"LARGE","OBJECT_NAME":"STARLINK-1467","APOAPSIS":"548.285","ECCENTRICITY":"0.00015200","CLASSIFICATION_TYPE":"U","MEAN_ANOMALY":"296.1986","PERIAPSIS":"546.179","REF_FRAME":"TEME","DECAY_DATE":null,"SITE":"AFETR","EPHEMERIS_TYPE":"0","COUNTRY_CODE":"US","TLE_LINE2":"2 45733  53.0529 245.2315 0001520  63.9159 296.1986 15.06393988110422","OBJECT_TYPE":"PAYLOAD","ELEMENT_SET_NO":"999","OBJECT_ID":"2020-038D","INCLINATION":"53.0529","MEAN_MOTION_DDOT":"0.0000000000000","FILE":"3494620","NORAD_CAT_ID":"45733","SEMIMAJOR_AXIS":"6925.367","TIME_SYSTEM":"UTC","MEAN_MOTION_DOT":"-0.00000652","PERIOD":"95.593","LAUNCH_DATE":"2020-06-13"},{"CLASSIFICATION_TYPE":"U","ECCENTRICITY":"0.00016620","PERIAPSIS":"546.077","MEAN_ANOMALY":"303.0532","EPOCH":"2022-06-13T12:56:10.023360","TLE_LINE1":"1 45734U 20038E   22164.53900490 -.00000055  00000-0  15196-4 0  9998","RCS_SIZE":"LARGE","RA_OF_ASC_NODE":"245.0275","APOAPSIS":"548.379","OBJECT_NAME":"STARLINK-1468","GP_ID":"206057112","MEAN_ELEMENT_THEORY":"SGP4","BSTAR":"0.00001519600000","CENTER_NAME":"EARTH","MEAN_MOTION":"15.06395310","ARG_OF_PERICENTER":"57.0617","REV_AT_EPOCH":"11043","PERIOD":"95.592","TIME_SYSTEM":"UTC","MEAN_MOTION_DOT":"-0.00000055","LAUNCH_DATE":"2020-06-13","OBJECT_ID":"2020-038E","INCLINATION":"53.0545","MEAN_MOTION_DDOT":"0.0000000000000","NORAD_CAT_ID":"45734","FILE":"3494620","SEMIMAJOR_AXIS":"6925.363","COUNTRY_CODE":"US","OBJECT_TYPE":"PAYLOAD","TLE_LINE2":"2 45734  53.0545 245.0275 0001662  57.0617 303.0532 15.06395310110431","ELEMENT_SET_NO":"999","DECAY_DATE":null,"REF_FRAME":"TEME","SITE":"AFETR","EPHEMERIS_TYPE":"0"},{"PERIOD":"95.592","MEAN_MOTION_DOT":"0.00005051","TIME_SYSTEM":"UTC","LAUNCH_DATE":"2020-06-13","MEAN_MOTION_DDOT":"0.0000000000000","INCLINATION":"53.0546","OBJECT_ID":"2020-038F","SEMIMAJOR_AXIS":"6925.327","NORAD_CAT_ID":"45735","FILE":"3494620","COUNTRY_CODE":"US","ELEMENT_SET_NO":"999","OBJECT_TYPE":"PAYLOAD","TLE_LINE2":"2 45735  53.0546 245.1615 0001232  84.7613 275.3517 15.06407066110423","DECAY_DATE":null,"REF_FRAME":"TEME","EPHEMERIS_TYPE":"0","SITE":"AFETR","CLASSIFICATION_TYPE":"U","ECCENTRICITY":"0.00012320","MEAN_ANOMALY":"275.3517","PERIAPSIS":"546.339","RCS_SIZE":"LARGE","TLE_LINE1":"1 45735U 20038F   22164.50950518  .00005051  00000-0  35764-3 0  9994","EPOCH":"2022-06-13T12:13:41.247552","RA_OF_ASC_NODE":"245.1615","APOAPSIS":"548.045","OBJECT_NAME":"STARLINK-1471","MEAN_ELEMENT_THEORY":"SGP4","GP_ID":"206057364","BSTAR":"0.00035764000000","CENTER_NAME":"EARTH","MEAN_MOTION":"15.06407066","ARG_OF_PERICENTER":"84.7613","REV_AT_EPOCH":"11042"},{"REF_FRAME":"TEME","DECAY_DATE":null,"SITE":"AFETR","EPHEMERIS_TYPE":"0","COUNTRY_CODE":"US","TLE_LINE2":"2 45736  53.0611 216.8286 0001356 300.9410  59.1460 15.37667860111960","OBJECT_TYPE":"PAYLOAD","ELEMENT_SET_NO":"999","OBJECT_ID":"2020-038G","INCLINATION":"53.0611","MEAN_MOTION_DDOT":"0.0000000000000","NORAD_CAT_ID":"45736","FILE":"3494786","SEMIMAJOR_AXIS":"6831.145","TIME_SYSTEM":"UTC","MEAN_MOTION_DOT":"0.00007874","PERIOD":"93.648","LAUNCH_DATE":"2020-06-13","REV_AT_EPOCH":"11196","ARG_OF_PERICENTER":"300.9410","BSTAR":"0.00021998000000","MEAN_ELEMENT_THEORY":"SGP4","GP_ID":"206065214","MEAN_MOTION":"15.37667860","CENTER_NAME":"EARTH","RA_OF_ASC_NODE":"216.8286","EPOCH":"2022-06-13T15:33:58.085280","TLE_LINE1":"1 45736U 20038G   22164.64858895  .00007874  00000-0  21998-3 0  9994","RCS_SIZE":"LARGE","OBJECT_NAME":"STARLINK-1472","APOAPSIS":"453.936","ECCENTRICITY":"0.00013560","CLASSIFICATION_TYPE":"U","MEAN_ANOMALY":"59.1460","PERIAPSIS":"452.083"},{"ARG_OF_PERICENTER":"71.3863","REV_AT_EPOCH":"11042","MEAN_ELEMENT_THEORY":"SGP4","GP_ID":"206056862","BSTAR":"0.00002072900000","CENTER_NAME":"EARTH","MEAN_MOTION":"15.06407447","EPOCH":"2022-06-13T11:57:45.914976","TLE_LINE1":"1 45738U 20038J   22164.49844809  .00000027  00000-0  20729-4 0  9994","RCS_SIZE":"LARGE","RA_OF_ASC_NODE":"245.2103","APOAPSIS":"548.203","OBJECT_NAME":"STARLINK-1474","CLASSIFICATION_TYPE":"U","ECCENTRICITY":"0.00014610","MEAN_ANOMALY":"288.7285","PERIAPSIS":"546.179","DECAY_DATE":null,"REF_FRAME":"TEME","SITE":"AFETR","EPHEMERIS_TYPE":"0","COUNTRY_CODE":"US","OBJECT_TYPE":"PAYLOAD","TLE_LINE2":"2 45738  53.0555 245.2103 0001461  71.3863 288.7285 15.06407447110425","ELEMENT_SET_NO":"999","INCLINATION":"53.0555","OBJECT_ID":"2020-038J","MEAN_MOTION_DDOT":"0.0000000000000","FILE":"3494620","NORAD_CAT_ID":"45738","SEMIMAJOR_AXIS":"6925.326","PERIOD":"95.592","TIME_SYSTEM":"UTC","MEAN_MOTION_DOT":"0.00000027","LAUNCH_DATE":"2020-06-13"},{"COUNTRY_CODE":"US","ELEMENT_SET_NO":"999","TLE_LINE2":"2 45739  53.0539 205.7269 0001617  50.6075 309.5057 15.06408523110964","OBJECT_TYPE":"PAYLOAD","DECAY_DATE":null,"REF_FRAME":"TEME","EPHEMERIS_TYPE":"0","SITE":"AFETR","PERIOD":"95.592","MEAN_MOTION_DOT":"0.00001846","TIME_SYSTEM":"UTC","LAUNCH_DATE":"2020-06-13","MEAN_MOTION_DDOT":"0.0000000000000","OBJECT_ID":"2020-038K","INCLINATION":"53.0539","SEMIMAJOR_AXIS":"6925.322","NORAD_CAT_ID":"45739","FILE":"3494620","GP_ID":"206056613","MEAN_ELEMENT_THEORY":"SGP4","BSTAR":"0.00014276000000","CENTER_NAME":"EARTH","MEAN_MOTION":"15.06408523","REV_AT_EPOCH":"11096","ARG_OF_PERICENTER":"50.6075","CLASSIFICATION_TYPE":"U","ECCENTRICITY":"0.00016170","MEAN_ANOMALY":"309.5057","PERIAPSIS":"546.068","TLE_LINE1":"1 45739U 20038K   22164.38050284  .00001846  00000-0  14276-3 0  9998","RCS_SIZE":"LARGE","EPOCH":"2022-06-13T09:07:55.445376","RA_OF_ASC_NODE":"205.7269","APOAPSIS":"548.307","OBJECT_NAME":"STARLINK-1475"},{"GP_ID":"206070733","MEAN_ELEMENT_THEORY":"SGP4","BSTAR":"0.00017168000000","CENTER_NAME":"EARTH","MEAN_MOTION":"15.06411711","REV_AT_EPOCH":"11156","ARG_OF_PERICENTER":"64.8257","CLASSIFICATION_TYPE":"U","ECCENTRICITY":"0.00013870","PERIAPSIS":"546.217","MEAN_ANOMALY":"295.2876","EPOCH":"2022-06-13T15:19:27.112800","TLE_LINE1":"1 45740U 20038L   22164.63850825  .00002277  00000-0  17168-3 0  9999","RCS_SIZE":"LARGE","RA_OF_ASC_NODE":"244.5781","APOAPSIS":"548.138","OBJECT_NAME":"STARLINK-1479","COUNTRY_CODE":"US","OBJECT_TYPE":"PAYLOAD","TLE_LINE2":"2 45740  53.0544 244.5781 0001387  64.8257 295.2876 15.06411711111565","ELEMENT_SET_NO":"999","DECAY_DATE":null,"REF_FRAME":"TEME","SITE":"AFETR","EPHEMERIS_TYPE":"0","PERIOD":"95.591","TIME_SYSTEM":"UTC","MEAN_MOTION_DOT":"0.00002277","LAUNCH_DATE":"2020-06-13","OBJECT_ID":"2020-038L","INCLINATION":"53.0544","MEAN_MOTION_DDOT":"0.0000000000000","FILE":"3495009","NORAD_CAT_ID":"45740","SEMIMAJOR_AXIS":"6925.313"}];
